{
  "type": "FeatureCollection",
  "features": [
    {
      "type": "Feature",
      "properties": {
        "norad_id": 37867,
        "name": "COSMOS 2476 (744)",
        "group": "glo-ops",
        "lat": 54.56667543112903,
        "lon": 119.54247029169261,
        "alt_km": 19185.14711915755,
        "timestamp": "2025-12-17T10:52:54.614185+00:00",
        "meta_object_name": "COSMOS 2476 (744)",
        "meta_object_id": "2011-064A",
        "meta_epoch": "2025-12-16T10:28:18.881760",
        "meta_mean_motion": 2.13101449,
        "meta_eccentricity": 0.00243502,
        "meta_inclination": 65.164,
        "meta_ra_of_asc_node": 79.0464,
        "meta_arg_of_pericenter": 234.7014,
        "meta_mean_anomaly": 128.9307,
        "meta_ephemeris_type": 0,
        "meta_classification_type": "U",
        "meta_norad_cat_id": 37867,
        "meta_element_set_no": 999,
        "meta_rev_at_epoch": 10987,
        "meta_bstar": 0,
        "meta_mean_motion_dot": -5.4e-07,
        "meta_mean_motion_ddot": 0,
        "tle_line1": "1 37867U 11064A   25350.43632965 -.00000054  00000+0  00000+0 0  9994",
        "tle_line2": "2 37867  65.1640  79.0464 0024350 234.7014 128.9307  2.13101449109870"
      },
      "geometry": {
        "type": "Point",
        "coordinates": [
          119.54247029169261,
          54.56667543112903
        ]
      }
    },
    {
      "type": "Feature",
      "properties": {
        "norad_id": 37868,
        "name": "COSMOS 2477 (745)",
        "group": "glo-ops",
        "lat": -55.304479132959464,
        "lon": -59.02365662738688,
        "alt_km": 19082.879861631893,
        "timestamp": "2025-12-17T10:52:54.614197+00:00",
        "meta_object_name": "COSMOS 2477 (745)",
        "meta_object_id": "2011-064B",
        "meta_epoch": "2025-12-15T06:06:12.573216",
        "meta_mean_motion": 2.1310289,
        "meta_eccentricity": 0.00211455,
        "meta_inclination": 65.1707,
        "meta_ra_of_asc_node": 79.1637,
        "meta_arg_of_pericenter": 234.5873,
        "meta_mean_anomaly": 123.1925,
        "meta_ephemeris_type": 0,
        "meta_classification_type": "U",
        "meta_norad_cat_id": 37868,
        "meta_element_set_no": 999,
        "meta_rev_at_epoch": 10983,
        "meta_bstar": 0,
        "meta_mean_motion_dot": -5.6e-07,
        "meta_mean_motion_ddot": 0,
        "tle_line1": "1 37868U 11064B   25349.25431219 -.00000056  00000+0  00000+0 0  9994",
        "tle_line2": "2 37868  65.1707  79.1637 0021145 234.5873 123.1925  2.13102890109838"
      },
      "geometry": {
        "type": "Point",
        "coordinates": [
          -59.02365662738688,
          -55.304479132959464
        ]
      }
    },
    {
      "type": "Feature",
      "properties": {
        "norad_id": 37869,
        "name": "COSMOS 2475 (743)",
        "group": "glo-ops",
        "lat": -18.622617851981104,
        "lon": -91.92587574692146,
        "alt_km": 19087.81404883772,
        "timestamp": "2025-12-17T10:52:54.614215+00:00",
        "meta_object_name": "COSMOS 2475 (743)",
        "meta_object_id": "2011-064C",
        "meta_epoch": "2025-12-16T17:15:16.173216",
        "meta_mean_motion": 2.1310159,
        "meta_eccentricity": 0.00263578,
        "meta_inclination": 65.1784,
        "meta_ra_of_asc_node": 79.1342,
        "meta_arg_of_pericenter": 248.7608,
        "meta_mean_anomaly": 108.5583,
        "meta_ephemeris_type": 0,
        "meta_classification_type": "U",
        "meta_norad_cat_id": 37869,
        "meta_element_set_no": 999,
        "meta_rev_at_epoch": 10987,
        "meta_bstar": 0,
        "meta_mean_motion_dot": -5.2e-07,
        "meta_mean_motion_ddot": 0,
        "tle_line1": "1 37869U 11064C   25350.71893719 -.00000052  00000+0  00000+0 0  9991",
        "tle_line2": "2 37869  65.1784  79.1342 0026357 248.7608 108.5583  2.13101590109877"
      },
      "geometry": {
        "type": "Point",
        "coordinates": [
          -91.92587574692146,
          -18.622617851981104
        ]
      }
    },
    {
      "type": "Feature",
      "properties": {
        "norad_id": 39155,
        "name": "COSMOS 2485 (747)",
        "group": "glo-ops",
        "lat": 57.40427031326058,
        "lon": -146.173752151422,
        "alt_km": 19152.591012857367,
        "timestamp": "2025-12-17T10:52:54.614239+00:00",
        "meta_object_name": "COSMOS 2485 (747)",
        "meta_object_id": "2013-019A",
        "meta_epoch": "2025-12-16T08:50:22.354656",
        "meta_mean_motion": 2.13103052,
        "meta_eccentricity": 0.00246679,
        "meta_inclination": 65.3158,
        "meta_ra_of_asc_node": 79.7449,
        "meta_arg_of_pericenter": 229.7889,
        "meta_mean_anomaly": 130.0094,
        "meta_ephemeris_type": 0,
        "meta_classification_type": "U",
        "meta_norad_cat_id": 39155,
        "meta_element_set_no": 999,
        "meta_rev_at_epoch": 9838,
        "meta_bstar": 0,
        "meta_mean_motion_dot": -5.4e-07,
        "meta_mean_motion_ddot": 0,
        "tle_line1": "1 39155U 13019A   25350.36831429 -.00000054  00000+0  00000+0 0  9996",
        "tle_line2": "2 39155  65.3158  79.7449 0024667 229.7889 130.0094  2.13103052 98385"
      },
      "geometry": {
        "type": "Point",
        "coordinates": [
          -146.173752151422,
          57.40427031326058
        ]
      }
    },
    {
      "type": "Feature",
      "properties": {
        "norad_id": 39620,
        "name": "COSMOS 2492 (754)",
        "group": "glo-ops",
        "lat": 32.21234106849046,
        "lon": 123.32812491480706,
        "alt_km": 19161.85495347041,
        "timestamp": "2025-12-17T10:52:54.614255+00:00",
        "meta_object_name": "COSMOS 2492 (754)",
        "meta_object_id": "2014-012A",
        "meta_epoch": "2025-12-16T07:50:46.447872",
        "meta_mean_motion": 2.13103282,
        "meta_eccentricity": 0.00142536,
        "meta_inclination": 65.4058,
        "meta_ra_of_asc_node": 320.149,
        "meta_arg_of_pericenter": 313.159,
        "meta_mean_anomaly": 46.7158,
        "meta_ephemeris_type": 0,
        "meta_classification_type": "U",
        "meta_norad_cat_id": 39620,
        "meta_element_set_no": 999,
        "meta_rev_at_epoch": 9134,
        "meta_bstar": 0,
        "meta_mean_motion_dot": -6.8e-07,
        "meta_mean_motion_ddot": 0,
        "tle_line1": "1 39620U 14012A   25350.32692648 -.00000068  00000+0  00000+0 0  9996",
        "tle_line2": "2 39620  65.4058 320.1490 0014253 313.1590  46.7158  2.13103282 91346"
      },
      "geometry": {
        "type": "Point",
        "coordinates": [
          123.32812491480706,
          32.21234106849046
        ]
      }
    },
    {
      "type": "Feature",
      "properties": {
        "norad_id": 40001,
        "name": "COSMOS 2500 (755)",
        "group": "glo-ops",
        "lat": 11.004225647632099,
        "lon": -35.01868232611633,
        "alt_km": 19147.063776064042,
        "timestamp": "2025-12-17T10:52:54.614267+00:00",
        "meta_object_name": "COSMOS 2500 (755)",
        "meta_object_id": "2014-032A",
        "meta_epoch": "2025-12-16T00:42:57.084768",
        "meta_mean_motion": 2.13105999,
        "meta_eccentricity": 0.00081036,
        "meta_inclination": 65.3412,
        "meta_ra_of_asc_node": 319.9203,
        "meta_arg_of_pericenter": 219.1149,
        "meta_mean_anomaly": 140.8212,
        "meta_ephemeris_type": 0,
        "meta_classification_type": "U",
        "meta_norad_cat_id": 40001,
        "meta_element_set_no": 999,
        "meta_rev_at_epoch": 8955,
        "meta_bstar": 0,
        "meta_mean_motion_dot": -6.8e-07,
        "meta_mean_motion_ddot": 0,
        "tle_line1": "1 40001U 14032A   25350.02982737 -.00000068  00000+0  00000+0 0  9991",
        "tle_line2": "2 40001  65.3412 319.9203 0008103 219.1149 140.8212  2.13105999 89558"
      },
      "geometry": {
        "type": "Point",
        "coordinates": [
          -35.01868232611633,
          11.004225647632099
        ]
      }
    },
    {
      "type": "Feature",
      "properties": {
        "norad_id": 40315,
        "name": "COSMOS 2501 (702K)",
        "group": "glo-ops",
        "lat": 6.572707529501925,
        "lon": 13.38576759077603,
        "alt_km": 19085.87655250296,
        "timestamp": "2025-12-17T10:52:54.614278+00:00",
        "meta_object_name": "COSMOS 2501 (702K)",
        "meta_object_id": "2014-075A",
        "meta_epoch": "2025-12-14T09:54:07.365600",
        "meta_mean_motion": 2.13101427,
        "meta_eccentricity": 0.00201134,
        "meta_inclination": 63.6139,
        "meta_ra_of_asc_node": 196.7672,
        "meta_arg_of_pericenter": 204.2903,
        "meta_mean_anomaly": 155.6894,
        "meta_ephemeris_type": 0,
        "meta_classification_type": "U",
        "meta_norad_cat_id": 40315,
        "meta_element_set_no": 999,
        "meta_rev_at_epoch": 8591,
        "meta_bstar": 0,
        "meta_mean_motion_dot": 9.7e-07,
        "meta_mean_motion_ddot": 0,
        "tle_line1": "1 40315U 14075A   25348.41258525  .00000097  00000+0  00000+0 0  9998",
        "tle_line2": "2 40315  63.6139 196.7672 0020113 204.2903 155.6894  2.13101427 85910"
      },
      "geometry": {
        "type": "Point",
        "coordinates": [
          13.38576759077603,
          6.572707529501925
        ]
      }
    }
  ]
}